{
    "links": {
        "self": "http://www.neowsapp.com/rest/v1/neo/3831875?api_key=iIulBulltgU6a56xZRHN4H3l9WmuAYTsLGpBGhQ2"
    },
    "id": "3831875",
    "neo_reference_id": "3831875",
    "name": "(2018 UE)",
    "designation": "2018 UE",
    "nasa_jpl_url": "http://ssd.jpl.nasa.gov/sbdb.cgi?sstr=3831875",
    "absolute_magnitude_h": 24.5,
    "estimated_diameter": {
        "kilometers": {
            "estimated_diameter_min": 0.0334622374,
            "estimated_diameter_max": 0.0748238376
        },
        "meters": {
            "estimated_diameter_min": 33.4622374455,
            "estimated_diameter_max": 74.8238376074
        },
        "miles": {
            "estimated_diameter_min": 0.0207924639,
            "estimated_diameter_max": 0.0464933628
        },
        "feet": {
            "estimated_diameter_min": 109.7842471007,
            "estimated_diameter_max": 245.4850393757
        }
    },
    "is_potentially_hazardous_asteroid": false,
    "close_approach_data": [
        {
            "close_approach_date": "2018-10-25",
            "close_approach_date_full": "2018-Oct-25 20:59",
            "epoch_date_close_approach": 1540501140000,
            "relative_velocity": {
                "kilometers_per_second": "16.1138328927",
                "kilometers_per_hour": "58009.7984136862",
                "miles_per_hour": "36045.0327976596"
            },
            "miss_distance": {
                "astronomical": "0.0441601848",
                "lunar": "17.1783118872",
                "kilometers": "6606269.584886376",
                "miles": "4104945.5711929488"
            },
            "orbiting_body": "Earth"
        }
    ],
    "orbital_data": {
        "orbit_id": "1",
        "orbit_determination_date": "2018-10-19 08:42:08",
        "first_observation_date": "2018-10-16",
        "last_observation_date": "2018-10-19",
        "data_arc_in_days": 3,
        "observations_used": 22,
        "orbit_uncertainty": "9",
        "minimum_orbit_intersection": ".0297786",
        "jupiter_tisserand_invariant": "4.959",
        "epoch_osculation": "2458408.5",
        "eccentricity": ".4772911290353558",
        "semi_major_axis": "1.265506231717616",
        "inclination": "12.03343146256571",
        "ascending_node_longitude": "206.257965962974",
        "orbital_period": "519.9898410778721",
        "perihelion_distance": ".6614913335798366",
        "perihelion_argument": "280.9341733064039",
        "aphelion_distance": "1.869521129855396",
        "perihelion_time": "2458474.510250021350",
        "mean_anomaly": "314.2997033203054",
        "mean_motion": ".6923212177641129",
        "equinox": "J2000",
        "orbit_class": {
            "orbit_class_type": "APO",
            "orbit_class_description": "Near-Earth asteroid orbits which cross the Earth’s orbit similar to that of 1862 Apollo",
            "orbit_class_range": "a (semi-major axis) > 1.0 AU; q (perihelion) < 1.017 AU"
        }
    },
    "is_sentry_object": false
}